STARLINK-1679           
1 46557U 20070AB  22072.81208834  .00003257  00000+0  23747-3 0  9995
2 46557  53.0534 221.8006 0001400  82.7640 277.3508 15.06398615 80138
STARLINK-1680           
1 46558U 20070AC  22073.48292702  .00003674  00000+0  26541-3 0  9995
2 46558  53.0523 218.7748 0001480  68.8426 291.2721 15.06400973 80245
STARLINK-1681           
1 46559U 20070AD  22072.87428906  .00000249  00000+0  35589-4 0  9993
2 46559  53.0535 206.5133 0001500  77.0318 283.0838 15.06398353 80344
STARLINK-1706           
1 46560U 20070AE  22073.09959307 -.00002663  00000+0 -16000-3 0  9994
2 46560  53.0518 220.5003 0001394  69.4428 290.6710 15.06391333 80183
STARLINK-1709           
1 46561U 20070AF  22073.11433766  .00000063  00000+0  23126-4 0  9992
2 46561  53.0548 220.4497 0001262  66.4476 293.6645 15.06397348 80189
STARLINK-1714           
1 46562U 20070AG  22073.11662949  .00002331  00000+0  17527-3 0  9997
2 46562  53.0532 215.4362 0000721  70.8162 289.2905 15.06410543 79943
STARLINK-1730           
1 46563U 20070AH  22072.89915862  .00002826  00000+0  20848-3 0  9996
2 46563  53.0546 216.3998 0001431  66.2496 293.8643 15.06410321 80218
STARLINK-1733           
1 46564U 20070AJ  22072.88074128 -.00000390  00000+0 -72884-5 0  9992
2 46564  53.0532 216.4949 0001417  81.0328 279.0821 15.06398437 80211
STARLINK-1735           
1 46565U 20070AK  22072.65958293 -.00001450  00000+0 -78491-4 0  9999
2 46565  53.0544 217.4831 0001530  70.5384 289.5770 15.06394307 80173
STARLINK-1740           
1 46566U 20070AL  22073.37465631  .00000143  00000+0  28488-4 0  9996
2 46566  53.0524 214.2646 0001517  65.9492 294.1656 15.06391270 79960
STARLINK-1741           
1 46567U 20070AM  22072.80701940  .00000355  00000+0  42738-4 0  9999
2 46567  53.0524 216.8286 0001577  77.8470 282.2695 15.06401004 80200
STARLINK-1743           
1 46568U 20070AN  22072.81131871  .00436940  00000+0  39610-2 0  9997
2 46568  53.0454 181.1607 0013128 325.8651  34.1518 15.66055626 80700
STARLINK-1747           
1 46569U 20070AP  22073.48522941  .00000501  00000+0  52495-4 0  9992
2 46569  53.0527 213.7663 0001316  64.7893 295.3232 15.06400543 80002
STARLINK-1748           
1 46570U 20070AQ  22073.52577250  .00000162  00000+0  29798-4 0  9995
2 46570  53.0562 213.5916 0001436  76.6220 283.4929 15.06403533 80318
STARLINK-1753           
1 46571U 20070AR  22072.97553446  .00179697  00000+0  10454-2 0  9992
2 46571  53.0509 172.0850 0002757 315.2153  44.8644 15.77435442 80843
STARLINK-1531           
1 46572U 20070AS  22073.45759472  .00001713  00000+0  13384-3 0  9993
2 46572  53.0542 233.9116 0001243  64.8520 295.2597 15.06398773 80034
STARLINK-1650           
1 46573U 20070AT  22073.43501629 -.00001618  00000+0 -89760-4 0  9999
2 46573  53.0532 218.9913 0001407  73.5014 286.6129 15.06389704 80230
STARLINK-1660           
1 46574U 20070AU  22073.48661433  .00002211  00000+0  16726-3 0  9994
2 46574  53.0528 218.7701 0001367  76.7789 283.3352 15.06402649 80234
STARLINK-1675           
1 46575U 20070AV  22073.54235732 -.00003626  00000+0 -22468-3 0  9994
2 46575  53.0550 193.4866 0001459  71.4092 288.7056 15.06394491 80596
STARLINK-1677           
1 46576U 20070AW  22073.54558631  .00001055  00000+0  89733-4 0  9992
2 46576  53.0531 218.4952 0001565  62.5616 297.5532 15.06402357 80241
STARLINK-1682           
1 46577U 20070AX  22073.37604417 -.00000889  00000+0 -40810-4 0  9997
2 46577  53.0549 219.2718 0001456  60.8915 299.2219 15.06393345 80216
STARLINK-1683           
1 46578U 20070AY  22073.08712803  .00018343  00000+0  12470-2 0  9996
2 46578  53.0529 205.5698 0001292  73.3877 286.7254 15.06404516 80082
STARLINK-1705           
1 46579U 20070AZ  22073.42764726  .00002556  00000+0  19039-3 0  9994
2 46579  53.0525 219.0313 0001412  74.7551 285.3594 15.06402580 80206
STARLINK-1708           
1 46580U 20070BA  22073.14013414 -.00001830  00000+0 -10402-3 0  9997
2 46580  53.0538 220.3162 0001523  69.4411 290.6742 15.06393175 80199
STARLINK-1712           
1 46581U 20070BB  22072.70750211 -.00001314  00000+0 -69331-4 0  9995
2 46581  53.0570 217.2675 0001372  65.9361 294.1772 15.06398053 80188
STARLINK-1728           
1 46582U 20070BC  22072.82544315  .00001312  00000+0  10689-3 0  9992
2 46582  53.0584 216.7055 0001279  77.3203 282.7929 15.06411005 80201
STARLINK-1729           
1 46583U 20070BD  22073.47233795 -.00002712  00000+0 -16325-3 0  9992
2 46583  53.0526 233.8237 0001321  78.7836 281.3302 15.06397363 80036
STARLINK-1732           
1 46584U 20070BE  22073.49260505 -.00000118  00000+0  10941-4 0  9990
2 46584  53.0554 213.7421 0001282  70.2642 289.8485 15.06402140 79996
STARLINK-1736           
1 46585U 20070BF  22073.37834339 -.00000129  00000+0  10206-4 0  9996
2 46585  53.0544 214.2571 0001334  76.8396 283.2741 15.06392945 79987
STARLINK-1737           
1 46586U 20070BG  22073.49997602  .00004627  00000+0  32933-3 0  9999
2 46586  53.0536 213.7163 0001247  93.9445 266.1687 15.06399345 79988
STARLINK-1746           
1 46588U 20070BJ  22073.08346606 -.00000497  00000+0 -14460-4 0  9997
2 46588  53.0563 215.5783 0001429  74.2573 285.8573 15.06398754 80251
STARLINK-1749           
1 46589U 20070BK  22073.54052310  .00000603  00000+0  59373-4 0  9994
2 46589  53.0545 213.5276 0001511  70.2779 289.8373 15.06396795 80315
STARLINK-1754           
1 46590U 20070BL  22073.43327524  .00700412  00000+0  23844-2 0  9993
2 46590  53.0531  92.7862 0006294 272.3268  87.7036 15.87546137 81971
STARLINK-1755           
1 46591U 20070BM  22073.52946988  .00002473  00000+0  18487-3 0  9995
2 46591  53.0524 213.5780 0001369  80.5449 279.5694 15.06402900 80312
FLOCK 4V-18             
1 46597U 20061BG  22072.92396310  .00006927  00000+0  34102-3 0  9992
2 46597  97.4136 146.4084 0008529 101.7462 258.4729 15.18261034 79324
FLOCK 4V-19             
1 46609U 20061BH  22073.48546279  .00007157  00000+0  35095-3 0  9997
2 46609  97.4017 146.5261 0004871  89.7255 270.4537 15.18408497 78972
GAOFEN 13               
1 46610U 20071A   22073.51017517 -.00000367  00000+0  00000+0 0  9993
2 46610   0.7331 272.2130 0003955 243.5600 317.8115  1.00271010  5308
FLOCK 4V-20             
1 46612U 20061BJ  22073.48106396  .00008333  00000+0  40830-3 0  9993
2 46612  97.4119 146.7885 0008801 104.5301 255.6910 15.18365758 78464
STARLINK-1715           
1 46671U 20073B   22073.33592738  .00008148  00000+0  56505-3 0  9994
2 46671  53.0549 304.4482 0001750  58.4227 301.6933 15.06412122 78035
STARLINK-1716           
1 46672U 20073C   22073.04430001 -.00000623  00000+0 -22945-4 0  9991
2 46672  53.0549 300.7443 0001693  62.8351 297.2810 15.06404389 78068
STARLINK-1717           
1 46673U 20073D   22073.01433104 -.00001363  00000+0 -72606-4 0  9997
2 46673  53.0555 315.8976 0001528  62.6595 297.4549 15.06406803 77848
STARLINK-1718           
1 46674U 20073E   22072.93742774 -.00002980  00000+0 -18133-3 0  9994
2 46674  53.0555 301.2414 0001514  68.8273 291.2878 15.06384762 77566
STARLINK-1720           
1 46675U 20073F   22073.06641953  .00000161  00000+0  29698-4 0  9993
2 46675  53.0545 300.6653 0001721  60.7524 299.3636 15.06407161 78060
STARLINK-1766           
1 46677U 20073H   22073.32812480  .00000234  00000+0  34603-4 0  9992
2 46677  53.0540 299.4810 0001703  55.2543 304.8606 15.06391267 78100
STARLINK-1773           
1 46679U 20073K   22072.86922785 -.00001689  00000+0 -94507-4 0  9998
2 46679  53.0562 281.5409 0001507  63.5758 296.5386 15.06397310 78325
STARLINK-1774           
1 46680U 20073L   22073.13691979 -.00003318  00000+0 -20395-3 0  9993
2 46680  53.0575 315.3355 0001522  51.9580 308.1547 15.06394928 77867
STARLINK-1775           
1 46681U 20073M   22073.37282973 -.00002803  00000+0 -16941-3 0  9990
2 46681  53.0541 314.2824 0001753  61.1774 298.9391 15.06389493 77891
STARLINK-1776           
1 46682U 20073N   22072.93419791 -.00003615  00000+0 -22391-3 0  9990
2 46682  53.0540 316.2348 0001834  56.6083 303.5081 15.06394081 77355
STARLINK-1780           
1 46684U 20073Q   22072.92267245  .00007969  00000+0  55343-3 0  9993
2 46684  53.0539 301.2908 0001796  54.6575 305.4582 15.06389897 77561
STARLINK-1781           
1 46685U 20073R   22073.11111817 -.00006547  00000+0 -42128-3 0  9999
2 46685  53.0550 315.4645 0001752  65.0846 295.0325 15.06376349 77858
STARLINK-1783           
1 46686U 20073S   22073.49076640 -.00002700  00000+0 -16251-3 0  9990
2 46686  53.0551 313.7505 0001442  50.8862 309.2255 15.06382667 77919
STARLINK-1784           
1 46687U 20073T   22073.47741313 -.00001256  00000+0 -65442-4 0  9997
2 46687  53.0542 278.8049 0001630  59.0622 301.0527 15.06393103 78402
STARLINK-1788           
1 46689U 20073V   22073.03741057 -.00004008  00000+0 -25045-3 0  9998
2 46689  53.0544 315.7978 0001786  53.5392 306.5762 15.06379480 77843
STARLINK-1789           
1 46690U 20073W   22073.30324902 -.00000616  00000+0 -22479-4 0  9996
2 46690  53.0547 289.5836 0001623  76.3360 283.7809 15.06400342 78231
STARLINK-1790           
1 46691U 20073X   22073.10328056 -.00001481  00000+0 -80540-4 0  9993
2 46691  53.0542 300.5021 0001610  62.4281 297.6872 15.06401662 78062
STARLINK-1791           
1 46692U 20073Y   22073.35438506 -.00000726  00000+0 -29822-4 0  9990
2 46692  53.0552 314.3536 0001525  63.4150 296.6995 15.06398675 77893
STARLINK-1792           
1 46693U 20073Z   22073.04062075 -.00004502  00000+0 -28364-3 0  9996
2 46693  53.0544 300.7720 0001631  54.2608 305.8533 15.06386003 78033
STARLINK-1793           
1 46694U 20073AA  22073.46265757 -.00001385  00000+0 -74096-4 0  9995
2 46694  53.0527 278.8874 0001711 124.7231 235.3920 15.06393324 78406
STARLINK-1795           
1 46696U 20073AC  22073.28205032 -.00000976  00000+0 -46615-4 0  9998
2 46696  53.0554 279.6836 0001834  51.4702 308.6451 15.06402853 78377
